{
    "links": {
        "self": "http://www.neowsapp.com/rest/v1/neo/3545715?api_key=iIulBulltgU6a56xZRHN4H3l9WmuAYTsLGpBGhQ2"
    },
    "id": "3545715",
    "neo_reference_id": "3545715",
    "name": "(2010 RL43)",
    "designation": "2010 RL43",
    "nasa_jpl_url": "http://ssd.jpl.nasa.gov/sbdb.cgi?sstr=3545715",
    "absolute_magnitude_h": 24.3,
    "estimated_diameter": {
        "kilometers": {
            "estimated_diameter_min": 0.0366906138,
            "estimated_diameter_max": 0.0820427065
        },
        "meters": {
            "estimated_diameter_min": 36.6906137531,
            "estimated_diameter_max": 82.0427064882
        },
        "miles": {
            "estimated_diameter_min": 0.0227984834,
            "estimated_diameter_max": 0.0509789586
        },
        "feet": {
            "estimated_diameter_min": 120.3760332259,
            "estimated_diameter_max": 269.1689931548
        }
    },
    "is_potentially_hazardous_asteroid": false,
    "close_approach_data": [
        {
            "close_approach_date": "2010-09-03",
            "close_approach_date_full": "2010-Sep-03 08:46",
            "epoch_date_close_approach": 1283503560000,
            "relative_velocity": {
                "kilometers_per_second": "13.5232912966",
                "kilometers_per_hour": "48683.8486676876",
                "miles_per_hour": "30250.2503013196"
            },
            "miss_distance": {
                "astronomical": "0.0150518096",
                "lunar": "5.8551539344",
                "kilometers": "2251718.655805552",
                "miles": "1399153.0931265376"
            },
            "orbiting_body": "Earth"
        }
    ],
    "orbital_data": {
        "orbit_id": "15",
        "orbit_determination_date": "2017-04-06 08:56:46",
        "first_observation_date": "2010-09-06",
        "last_observation_date": "2010-09-29",
        "data_arc_in_days": 23,
        "observations_used": 99,
        "orbit_uncertainty": "8",
        "minimum_orbit_intersection": ".00780046",
        "jupiter_tisserand_invariant": "3.274",
        "epoch_osculation": "2455449.5",
        "eccentricity": ".622057982609041",
        "semi_major_axis": "2.340067842785427",
        "inclination": ".6135084641114215",
        "ascending_node_longitude": "289.3954802228644",
        "orbital_period": "1307.49820021515",
        "perihelion_distance": ".8844099613340337",
        "perihelion_argument": "2.419377365431014",
        "aphelion_distance": "3.79572572423682",
        "perihelion_time": "2455407.817826798919",
        "mean_anomaly": "11.47656061776603",
        "mean_motion": ".2753349870315398",
        "equinox": "J2000",
        "orbit_class": {
            "orbit_class_type": "APO",
            "orbit_class_description": "Near-Earth asteroid orbits which cross the Earth’s orbit similar to that of 1862 Apollo",
            "orbit_class_range": "a (semi-major axis) > 1.0 AU; q (perihelion) < 1.017 AU"
        }
    },
    "is_sentry_object": false
}